{"format":"tle-catalog-v1","generatedAt":"2026-06-25T16:01:17.978Z","count":6895,"entries":[{"name":"CLUSTER II-FM7 (SAMBA)","line1":"1 26410U 00041A   26177.06472445  .00005882  00000+0  00000+0 0  9994","line2":"2 26410 149.9012  52.3742 9061812 269.6784 359.6419  0.44870397 20352"},{"name":"CLUSTER II-FM8 (TANGO)","line1":"1 26464U 00045B   26172.94229412  .00004849  00000+0  00000+0 0  9995","line2":"2 26464 150.1352  52.7746 9062813 269.8657   2.6673  0.44420336 20332"},{"name":"CORIOLIS","line1":"1 27640U 03001A   26176.30065910  .00000097  00000+0  65985-4 0  9991","line2":"2 27640  98.7126 183.0615 0013846 184.7389 175.3659 14.19946883215377"},{"name":"CUBESAT XI-IV (CO-57)","line1":"1 27848U 03031J   26175.96755848  .00000227  00000+0  11865-3 0  9993","line2":"2 27848  98.6767 184.1351 0009536 174.0960 186.0333 14.23624582192482"},{"name":"CUTE-1 (CO-55)","line1":"1 27844U 03031E   26176.25618352  .00000279  00000+0  13960-3 0  9995","line2":"2 27844  98.6736 184.7136 0010021 155.2513 204.9149 14.24340250192828"},{"name":"DMSP 5D-3 F15 (USA 147)","line1":"1 25991U 99067A   26176.27039412  .00000128  00000+0  85394-4 0  9990","line2":"2 25991  98.9957 214.9261 0009548 345.6874  76.5435 14.17566655371796"},{"name":"EYESAT A (AO-27)","line1":"1 22825U 93061C   26176.18096079  .00000079  00000+0  46862-4 0  9995","line2":"2 22825  98.6877 243.5916 0009517  79.1910 281.0343 14.30944177708146"},{"name":"FENGYUN 1D","line1":"1 27431U 02024B   26176.02368588 -.00000041  00000+0  17941-5 0  9999","line2":"2 27431  98.9515 226.3185 0014761 217.7965 142.2170 14.10225342240589"},{"name":"FORTE","line1":"1 24920U 97047A   26176.22053644  .00000165  00000+0  89596-4 0  9994","line2":"2 24920  69.9540 355.8750 0024633 267.6589  92.1713 14.27948050499832"},{"name":"IMAGE","line1":"1 26113U 00017A   26172.42521202 -.00000086  00000+0  00000+0 0  9990","line2":"2 26113  94.2324 315.4279 7428984 287.3239   9.1864  1.68666410161572"},{"name":"ISS (ZARYA)","line1":"1 25544U 98067A   26176.18758125  .00009470  00000+0  17725-3 0  9993","line2":"2 25544  51.6326 260.4913 0004408 228.8642 131.1966 15.49415960572991"},{"name":"ITAMSAT (IO-26)","line1":"1 22826U 93061D   26176.15798819  .00000084  00000+0  48577-4 0  9995","line2":"2 22826  98.6825 243.4869 0009920  64.2862 295.9344 14.31371311708459"},{"name":"JAS-2 (FO-29)","line1":"1 24278U 96046B   26176.14811663 -.00000016  00000+0  17093-4 0  9991","line2":"2 24278  98.5234  23.9293 0350914  75.8351 288.1508 13.53274732474245"},{"name":"LANDSAT 7","line1":"1 25682U 99020A   26176.30056620  .00000404  00000+0  85740-4 0  9992","line2":"2 25682  97.8580 179.5642 0001817  85.8869 290.9373 14.63923120447039"},{"name":"MEGSAT-1","line1":"1 26546U 00057B   26176.18188018  .00002729  00000+0  19770-3 0  9998","line2":"2 26546  64.5505  43.4936 0042469 282.8051  76.8322 15.05533409398867"},{"name":"MOZHAETS 4 (RS22)","line1":"1 27939U 03042A   26176.30506214  .00000883  00000+0  14418-3 0  9991","line2":"2 27939  98.3476   0.8932 0010010 240.4770 244.0899 14.73479266216742"},{"name":"NOAA 15","line1":"1 25338U 98030A   26176.31849227  .00000097  00000+0  57356-4 0  9994","line2":"2 25338  98.5063 196.7314 0009548 329.9228  30.1404 14.27148805462459"},{"name":"ODIN","line1":"1 26702U 01007A   26176.08925060  .00262742  00000+0  14705-2 0  9998","line2":"2 26702  97.3797 217.5522 0006631 132.9735 227.2089 15.78592061390647"},{"name":"OMNI-M1","line1":"1 26857U 01026A   26172.55979507 -.00000020  00000+0  00000+0 0  9993","line2":"2 26857  44.8291 244.2559 0014072  54.4534 305.7323  3.92401787205740"},{"name":"OPAL (OO-38)","line1":"1 26063U 00004C   26176.03992934  .00000124  00000+0  60074-4 0  9999","line2":"2 26063 100.1909 114.3108 0036026  14.0830 346.1348 14.37967390384418"},{"name":"ORBCOMM FM36","line1":"1 25984U 99065E   26175.11961352  .00000731  00000+0  27936-3 0  9996","line2":"2 25984  45.0375 126.6748 0004641 347.3943  12.6790 14.39208094387986"},{"name":"ORSTED","line1":"1 25635U 99008B   26176.24498953  .00000425  00000+0  10137-3 0  9998","line2":"2 25635  96.4822  81.9299 0132453 160.1190 200.5243 14.51813698443135"},{"name":"PCSAT (NO-44)","line1":"1 26931U 01043C   26176.26137265  .00000085  00000+0  62535-4 0  9990","line2":"2 26931  67.0494 223.3886 0006049 265.0171  95.0240 14.31958489291606"},{"name":"PEGASUS R/B","line1":"1 22491U 93009C   26175.92557270  .00000789  00000+0  12311-3 0  9991","line2":"2 22491  24.9787  41.3182 0043956 190.2149 169.7470 14.57979208770762"},{"name":"PHASE 3D (AO-40)","line1":"1 26609U 00072B   26174.69907961 -.00000070  00000+0  00000+0 0  9995","line2":"2 26609   9.4179 349.9114 7931475 180.5159 177.6992  1.25588411117590"},{"name":"PROBA-1","line1":"1 26958U 01049B   26176.30094041  .00003623  00000+0  23457-3 0  9994","line2":"2 26958  97.9604 185.1164 0056319  95.3145 265.4511 15.07528635344843"},{"name":"RADIO ROSTO (RS15)","line1":"1 23439U 94085A   26176.00931005 -.00000046  00000+0 -10565-3 0  9998","line2":"2 23439  64.8179 290.5659 0156204   2.4278 357.7371 11.27583413296785"},{"name":"SAUDISAT 1C (SO-50)","line1":"1 27607U 02058C   26176.17970424  .00000928  00000+0  12668-3 0  9997","line2":"2 27607  64.5519 104.2569 0075079 260.9817  98.2786 14.83062534265641"},{"name":"SPOT 5","line1":"1 27421U 02021A   26176.14985573  .00000303  00000+0  74028-4 0  9995","line2":"2 27421  97.9842 214.6605 0128236 251.4829 107.2400 14.54755799264006"},{"name":"TECHSAT 1B (GO-32)","line1":"1 25397U 98043D   26175.72087360  .00000044  00000+0  39041-4 0  9992","line2":"2 25397  99.0070 168.6697 0001426 148.6020 211.5244 14.24429629452407"}]}